OBJECT_NAME,OBJECT_ID,EPOCH,MEAN_MOTION,ECCENTRICITY,INCLINATION,RA_OF_ASC_NODE,ARG_OF_PERICENTER,MEAN_ANOMALY,EPHEMERIS_TYPE,CLASSIFICATION_TYPE,NORAD_CAT_ID,ELEMENT_SET_NO,REV_AT_EPOCH,BSTAR,MEAN_MOTION_DOT,MEAN_MOTION_DDOT
CENTISPACE-1 GROUP 05 OBJECT E,2026-138E,2026-07-05T05:07:15.631104,14.15990623,.00088333,55.1388,214.5535,322.6723,37.3637,0,U,69586,999,257,-.13371378E-3,-.419E-5,0
CENTISPACE-1 GROUP 05 OBJECT F,2026-138F,2026-07-05T05:08:25.005984,14.15913743,.0008717,55.1392,214.5592,327.1170,32.9261,0,U,69587,999,257,-.1347493E-3,-.42E-5,0
CENTISPACE-1 GROUP 05 OBJECT G,2026-138G,2026-07-05T05:05:22.125696,14.16078213,.00079863,55.1392,214.5452,326.6937,33.3534,0,U,69588,999,257,-.14836875E-3,-.448E-5,0
SPACEMOBILE-008,2026-139A,2026-07-04T23:29:21.180768,15.12791825,.00045319,52.9937,181.7914,31.4553,328.6708,0,U,69589,999,267,.47782231E-4,.547E-5,0
SPACEMOBILE-009,2026-139B,2026-07-04T23:31:08.453280,15.12685143,.00047409,52.9927,181.7949,26.4443,333.6789,0,U,69590,999,267,.488071E-4,.563E-5,0
SPACEMOBILE-010,2026-139C,2026-07-04T23:33:58.893696,15.12516354,.00046173,52.9932,181.8095,17.3022,342.8125,0,U,69591,999,268,.51397229E-4,.605E-5,0
KUIPER-00423,2026-140A,2026-07-04T17:23:25.236960,15.38400119,.00136656,51.8809,313.7629,229.9746,130.0043,0,U,69592,999,393,.15845818E-2,.61233E-3,0
KUIPER-00428,2026-140B,2026-07-04T00:00:02.998944,15.36707463,.0007596,51.8819,317.5706,353.9697,163.8280,0,U,69593,999,375,-.4182E-4,-.1916E-4,0
KUIPER-00481,2026-140C,2026-07-05T06:00:04.999968,15.37742307,.00111745,51.8788,311.2957,239.3633,112.5227,0,U,69594,999,345,.22068297E-2,.83781E-3,0
KUIPER-00490,2026-140D,2026-07-04T17:47:14.726688,15.37762782,.0006263,51.8782,313.8621,299.3763,60.6598,0,U,69595,999,393,.17335262E-2,.65526E-3,0
KUIPER-00493,2026-140E,2026-07-04T18:07:40.429056,15.36503618,.00072274,51.8833,313.9597,359.4727,0.6251,0,U,69596,999,393,.19600243E-2,.71236E-3,0
KUIPER-00496,2026-140F,2026-07-04T18:20:59.488224,15.34614214,.00100633,51.8797,314.0140,18.3048,341.8298,0,U,69597,999,393,-.33805536E-3,-.11897E-3,0
KUIPER-00513,2026-140G,2026-07-04T17:44:28.670208,15.37953756,.00068604,51.8815,313.8573,298.3893,61.6402,0,U,69598,999,393,.15311568E-2,.58142E-3,0
KUIPER-00516,2026-140H,2026-07-04T17:50:56.424768,15.37415070,.00067019,51.8819,313.8792,310.3423,49.6978,0,U,69599,999,393,.18655684E-2,.69798E-3,0
KUIPER-00517,2026-140J,2026-07-04T19:02:40.295616,15.38701248,.00105327,51.8774,313.4688,253.2739,106.7092,0,U,69600,999,394,.15376019E-2,.59911E-3,0
KUIPER-00520,2026-140K,2026-07-04T17:52:42.985344,15.37464283,.0006401,51.8845,313.8954,312.5034,47.5411,0,U,69601,999,393,.16828332E-2,.62962E-3,0
KUIPER-00522,2026-140L,2026-07-04T18:56:19.192128,15.38436601,.00134176,51.8793,313.4419,226.4419,133.5455,0,U,69602,999,394,.84546503E-3,.32396E-3,0
KUIPER-00528,2026-140M,2026-07-04T17:55:06.927744,15.37317390,.00053947,51.8819,313.8983,317.3698,42.6870,0,U,69603,999,393,.17665934E-2,.65814E-3,0
KUIPER-00532,2026-140N,2026-07-05T06:00:04.999968,15.36555657,.00054049,51.8802,311.5328,0.2849,234.3032,0,U,69604,999,394,.21198394E-2,.77242E-3,0
KUIPER-00533,2026-140P,2026-07-04T17:39:53.080128,15.38071988,.00076944,51.8778,313.8324,286.5823,73.4319,0,U,69605,999,393,.18216112E-2,.69633E-3,0
KUIPER-00534,2026-140Q,2026-07-04T17:16:17.306400,15.38569421,.00136299,51.8825,313.7309,226.2890,133.6969,0,U,69606,999,393,.22343156E-2,.8728E-3,0
KUIPER-00537,2026-140R,2026-07-05T00:00:02.999808,15.35018787,.00096354,51.8820,312.8501,18.8349,221.9607,0,U,69607,999,364,-.55123262E-2,-.186257E-2,0
KUIPER-00538,2026-140S,2026-07-04T17:49:57.226080,15.37531493,.00063975,51.8832,313.8809,298.1358,61.8982,0,U,69608,999,393,.16266545E-2,.60965E-3,0
KUIPER-00540,2026-140T,2026-07-04T17:59:46.746240,15.36988236,.00064177,51.8822,313.9277,349.0716,11.0130,0,U,69609,999,393,.17481209E-2,.64429E-3,0
KUIPER-00541,2026-140U,2026-07-04T17:40:46.283520,15.38212986,.00074307,51.8824,313.8443,283.2791,76.7368,0,U,69610,999,393,.16992321E-2,.65186E-3,0
KUIPER-00542,2026-140V,2026-07-04T17:38:16.700928,15.38189814,.00080113,51.8792,313.8252,264.0621,95.9453,0,U,69611,999,393,.16577301E-2,.63531E-3,0
KUIPER-00543,2026-140W,2026-07-04T18:04:58.475712,15.36664401,.00072875,51.8809,313.9401,356.6797,3.4140,0,U,69612,999,393,.18542167E-2,.67691E-3,0
KUIPER-00544,2026-140X,2026-07-04T17:43:07.511232,15.37962628,.00063537,51.8780,313.8459,277.9041,82.1225,0,U,69613,999,393,.17705849E-2,.67391E-3,0
KUIPER-00546,2026-140Y,2026-07-04T17:18:18.094464,15.38711912,.00146073,51.8798,313.7367,224.2185,135.7636,0,U,69614,999,393,.22491346E-2,.88326E-3,0
KUIPER-00547,2026-140Z,2026-07-04T19:05:39.735456,15.37667734,.0010853,51.8825,313.4880,247.1276,112.8566,0,U,69615,999,394,.1345529E-2,.50577E-3,0
