CENTISPACE-1 GROUP 05 O*
1 69586U 26138E   26186.21337536 -.00000419  00000+0 -13371-3 0  9990
2 69586  55.1388 214.5535 0008833 322.6723  37.3637 14.15990623  2571
CENTISPACE-1 GROUP 05 O*
1 69587U 26138F   26186.21417831 -.00000420  00000+0 -13475-3 0  9995
2 69587  55.1392 214.5592 0008717 327.1170  32.9261 14.15913743  2579
CENTISPACE-1 GROUP 05 O*
1 69588U 26138G   26186.21206164 -.00000448  00000+0 -14837-3 0  9994
2 69588  55.1392 214.5452 0007986 326.6937  33.3534 14.16078213  2570
SPACEMOBILE-008         
1 69589U 26139A   26185.97871737  .00000547  00000+0  47782-4 0  9996
2 69589  52.9937 181.7914 0004531  31.4553 328.6708 15.12791825  2679
SPACEMOBILE-009         
1 69590U 26139B   26185.97995895  .00000563  00000+0  48807-4 0  9997
2 69590  52.9927 181.7949 0004740  26.4443 333.6789 15.12685143  2672
SPACEMOBILE-010         
1 69591U 26139C   26185.98193164  .00000605  00000+0  51397-4 0  9993
2 69591  52.9932 181.8095 0004617  17.3022 342.8125 15.12516354  2681
KUIPER-00423            
1 69592U 26140A   26185.72459765  .00061233  00000+0  15846-2 0  9991
2 69592  51.8809 313.7629 0013665 229.9746 130.0043 15.38400119  3933
KUIPER-00428            
1 69593U 26140B   26185.00003471 -.00001916  00000+0 -41820-4 0  9999
2 69593  51.8819 317.5706 0007596 353.9697 163.8280 15.36707463  3759
KUIPER-00481            
1 69594U 26140C   26186.25005787  .00083781  00000+0  22068-2 0  9999
2 69594  51.8788 311.2957 0011174 239.3633 112.5227 15.37742307  3454
KUIPER-00490            
1 69595U 26140D   26185.74114267  .00065526  00000+0  17335-2 0  9995
2 69595  51.8782 313.8621 0006263 299.3763  60.6598 15.37762782  3934
KUIPER-00493            
1 69596U 26140E   26185.75532904  .00071236  00000+0  19600-2 0  9991
2 69596  51.8833 313.9597 0007227 359.4727   0.6251 15.36503618  3934
KUIPER-00496            
1 69597U 26140F   26185.76457741 -.00011897  00000+0 -33806-3 0  9992
2 69597  51.8797 314.0140 0010063  18.3048 341.8298 15.34614214  3933
KUIPER-00513            
1 69598U 26140G   26185.73922072  .00058142  00000+0  15312-2 0  9997
2 69598  51.8815 313.8573 0006860 298.3893  61.6402 15.37953756  3934
KUIPER-00516            
1 69599U 26140H   26185.74370862  .00069798  00000+0  18656-2 0  9996
2 69599  51.8819 313.8792 0006701 310.3423  49.6978 15.37415070  3936
KUIPER-00517            
1 69600U 26140J   26185.79352194  .00059911  00000+0  15376-2 0  9994
2 69600  51.8774 313.4688 0010532 253.2739 106.7092 15.38701248  3940
KUIPER-00520            
1 69601U 26140K   26185.74494196  .00062962  00000+0  16828-2 0  9992
2 69601  51.8845 313.8954 0006401 312.5034  47.5411 15.37464283  3937
KUIPER-00522            
1 69602U 26140L   26185.78911102  .00032396  00000+0  84547-3 0  9990
2 69602  51.8793 313.4419 0013417 226.4419 133.5455 15.38436601  3946
KUIPER-00528            
1 69603U 26140M   26185.74660796  .00065814  00000+0  17666-2 0  9995
2 69603  51.8819 313.8983 0005394 317.3698  42.6870 15.37317390  3932
KUIPER-00532            
1 69604U 26140N   26186.25005787  .00077242  00000+0  21198-2 0  9999
2 69604  51.8802 311.5328 0005404   0.2849 234.3032 15.36555657  3941
KUIPER-00533            
1 69605U 26140P   26185.73603102  .00069633  00000+0  18216-2 0  9999
2 69605  51.8778 313.8324 0007694 286.5823  73.4319 15.38071988  3930
KUIPER-00534            
1 69606U 26140Q   26185.71964475  .00087280  00000+0  22343-2 0  9995
2 69606  51.8825 313.7309 0013629 226.2890 133.6969 15.38569421  3930
KUIPER-00537            
1 69607U 26140R   26186.00003472 -.00186257  00000+0 -55123-2 0  9998
2 69607  51.8820 312.8501 0009635  18.8349 221.9607 15.35018787  3645
KUIPER-00538            
1 69608U 26140S   26185.74302345  .00060965  00000+0  16267-2 0  9991
2 69608  51.8832 313.8809 0006397 298.1358  61.8982 15.37531493  3931
KUIPER-00540            
1 69609U 26140T   26185.74984660  .00064429  00000+0  17481-2 0  9996
2 69609  51.8822 313.9277 0006417 349.0716  11.0130 15.36988236  3930
KUIPER-00541            
1 69610U 26140U   26185.73664680  .00065186  00000+0  16992-2 0  9991
2 69610  51.8824 313.8443 0007430 283.2791  76.7368 15.38212986  3931
KUIPER-00542            
1 69611U 26140V   26185.73491552  .00063531  00000+0  16577-2 0  9999
2 69611  51.8792 313.8252 0008011 264.0621  95.9453 15.38189814  3930
KUIPER-00543            
1 69612U 26140W   26185.75345458  .00067691  00000+0  18542-2 0  9990
2 69612  51.8809 313.9401 0007287 356.6797   3.4140 15.36664401  3938
KUIPER-00544            
1 69613U 26140X   26185.73828138  .00067391  00000+0  17706-2 0  9998
2 69613  51.8780 313.8459 0006353 277.9041  82.1225 15.37962628  3930
KUIPER-00546            
1 69614U 26140Y   26185.72104276  .00088326  00000+0  22491-2 0  9996
2 69614  51.8798 313.7367 0014607 224.2185 135.7636 15.38711912  3932
KUIPER-00547            
1 69615U 26140Z   26185.79559879  .00050577  00000+0  13455-2 0  9994
2 69615  51.8825 313.4880 0010853 247.1276 112.8566 15.37667734  3945
